NORAD_CAT_ID,OBJECT_NAME,OBJECT_TYPE,EPOCH,MEAN_MOTION,ECCENTRICITY,INCLINATION,RA_OF_ASC_NODE,ARG_OF_PERICENTER,MEAN_ANOMALY,BSTAR,MEAN_MOTION_DOT,MEAN_MOTION_DDOT,TLE_LINE0,TLE_LINE1,TLE_LINE2,SEMIMAJOR_AXIS,PERIOD,APOGEE,PERIGEE,DECAYED
53547.0,STARLINK-4474,PAYLOAD,2024-07-23 07:40:46,15.08839836,0.0001289,53.2156,212.3516,91.2717,268.8423,0.00011645,1.566e-05,0.0,0 STARLINK-4474,1 53547U 22101W   24205.31998376  .00001566  00000-0  11645-3 0  9997,2 53547  53.2156 212.3516 0001289  91.2717 268.8423 15.08839836107243,6917.881,95.438,540.638,538.854,0.0
53547.0,STARLINK-4474,PAYLOAD,2024-07-24 04:20:47,15.0883616,0.0001268,53.2152,208.4856,88.9847,271.1291,1.8842e-05,1.2e-07,0.0,0 STARLINK-4474,1 53547U 22101W   24206.18110973  .00000012  00000-0  18842-4 0  9994,2 53547  53.2152 208.4856 0001268  88.9847 271.1291 15.08836160106703,6917.892,95.438,540.634,538.88,0.0
53547.0,STARLINK-4474,PAYLOAD,2024-07-24 09:06:57,15.08835879,0.0001275,53.2152,207.5935,89.0765,271.0373,1.0841e-05,-1.15e-06,0.0,0 STARLINK-4474,1 53547U 22101W   24206.37983028 -.00000115  00000-0  10841-4 0  9990,2 53547  53.2152 207.5935 0001275  89.0765 271.0373 15.08835879107404,6917.893,95.438,540.64,538.876,0.0
53547.0,STARLINK-4474,PAYLOAD,2024-07-25 05:46:57,15.08840733,0.0001288,53.2152,203.7274,84.9637,275.1502,4.6711e-05,4.56e-06,0.0,0 STARLINK-4474,1 53547U 22101W   24207.24094718  .00000456  00000-0  46711-4 0  9998,2 53547  53.2152 203.7274 0001288  84.9637 275.1502 15.08840733107532,6917.878,95.438,540.634,538.852,0.0
53547.0,STARLINK-4474,PAYLOAD,2024-07-25 08:57:44,15.08841483,0.0001325,53.2155,203.1331,88.2052,271.9092,5.3069e-05,5.57e-06,0.0,0 STARLINK-4474,1 53547U 22101W   24207.37342649  .00000557  00000-0  53069-4 0  9997,2 53547  53.2155 203.1331 0001325  88.2052 271.9092 15.08841483106881,6917.876,95.437,540.657,538.824,0.0
53547.0,STARLINK-4474,PAYLOAD,2024-07-26 07:13:07,15.08839591,0.000134,53.2154,198.9687,97.741,262.3734,9.3547e-05,1.201e-05,0.0,0 STARLINK-4474,1 53547U 22101W   24208.30078579  .00001201  00000-0  93547-4 0  9991,2 53547  53.2154 198.9687 0001340  97.7410 262.3734 15.08839591107699,6917.882,95.438,540.674,538.82,0.0
53547.0,STARLINK-4474,PAYLOAD,2024-07-26 16:45:26,15.08842409,0.0001396,53.2158,197.1848,94.996,265.1191,9.294e-05,1.192e-05,0.0,0 STARLINK-4474,1 53547U 22101W   24208.69822402  .00001192  00000-0  92940-4 0  9990,2 53547  53.2158 197.1848 0001396  94.9960 265.1191 15.08842409107086,6917.873,95.437,540.704,538.772,0.0
53547.0,STARLINK-4474,PAYLOAD,2024-07-26 23:06:59,15.08843158,0.0001432,53.2159,195.9966,92.5492,267.5664,4.5655e-05,4.39e-06,0.0,0 STARLINK-4474,1 53547U 22101W   24208.96318532  .00000439  00000-0  45655-4 0  9998,2 53547  53.2159 195.9966 0001432  92.5492 267.5664 15.08843158107790,6917.871,95.437,540.726,538.745,0.0
53547.0,STARLINK-4474,PAYLOAD,2024-07-27 05:28:31,15.08843393,0.0001414,53.2158,194.8064,95.747,264.3683,4.676e-05,4.56e-06,0.0,0 STARLINK-4474,1 53547U 22101W   24209.22814444  .00000456  00000-0  46760-4 0  9998,2 53547  53.2158 194.8064 0001414  95.7470 264.3683 15.08843393107839,6917.87,95.437,540.713,538.757,0.0
53547.0,STARLINK-4474,PAYLOAD,2024-07-28 05:19:19,15.0883685,0.0001359,53.2154,190.3463,92.1147,268.0001,4.7096e-05,4.62e-06,0.0,0 STARLINK-4474,1 53547U 22101W   24210.22174779  .00000462  00000-0  47096-4 0  9990,2 53547  53.2154 190.3463 0001359  92.1147 268.0001 15.08836850107317,6917.89,95.438,540.695,538.815,0.0
53547.0,STARLINK-4474,PAYLOAD,2024-07-28 22:48:33,15.08838185,0.000132,53.2151,187.075,92.0949,268.0194,3.4946e-05,2.68e-06,0.0,0 STARLINK-4474,1 53547U 22101W   24210.95038723  .00000268  00000-0  34946-4 0  9992,2 53547  53.2151 187.0750 0001320  92.0949 268.0194 15.08838185108095,6917.886,95.438,540.664,538.838,0.0
53547.0,STARLINK-4474,PAYLOAD,2024-07-29 05:10:06,15.08835885,0.0001325,53.2151,185.8851,93.0221,267.0923,1.3097e-05,-7.9e-07,0.0,0 STARLINK-4474,1 53547U 22101W   24211.21534963 -.00000079  00000-0  13097-4 0  9994,2 53547  53.2151 185.8851 0001325  93.0221 267.0923 15.08835885108130,6917.893,95.438,540.675,538.841,0.0
53547.0,STARLINK-4474,PAYLOAD,2024-07-29 22:39:20,15.08835103,0.0001292,53.2156,182.6127,90.8422,269.2719,2.2289e-05,6.7e-07,0.0,0 STARLINK-4474,1 53547U 22101W   24211.94399166  .00000067  00000-0  22289-4 0  9997,2 53547  53.2156 182.6127 0001292  90.8422 269.2719 15.08835103108249,6917.895,95.438,540.654,538.867,0.0
53547.0,STARLINK-4474,PAYLOAD,2024-07-30 05:00:53,15.08836351,0.0001278,53.2161,181.4247,89.7819,270.332,3.8205e-05,3.2e-06,0.0,0 STARLINK-4474,1 53547U 22101W   24212.20895124  .00000320  00000-0  38205-4 0  9999,2 53547  53.2161 181.4247 0001278  89.7819 270.3320 15.08836351107613,6917.892,95.438,540.641,538.872,0.0
53547.0,STARLINK-4474,PAYLOAD,2024-07-30 14:33:11,15.08841686,0.0001263,53.2164,179.6408,88.7955,271.3181,0.00011919,1.61e-05,0.0,0 STARLINK-4474,1 53547U 22101W   24212.60638619  .00001610  00000-0  11919-3 0  9992,2 53547  53.2164 179.6408 0001263  88.7955 271.3181 15.08841686108342,6917.875,95.437,540.614,538.867,0.0
53547.0,STARLINK-4474,PAYLOAD,2024-07-31 04:51:41,15.08830061,0.0001471,53.2172,176.9701,104.8992,255.2163,5.0934e-05,5.23e-06,0.0,0 STARLINK-4474,1 53547U 22101W   24213.20255816  .00000523  00000-0  50934-4 0  9996,2 53547  53.2172 176.9701 0001471 104.8992 255.2163 15.08830061107760,6917.911,95.438,540.793,538.758,0.0
53547.0,STARLINK-4474,PAYLOAD,2024-07-31 14:23:59,15.08838054,0.0001515,53.2179,175.1858,103.7317,256.3844,6.0658e-05,6.77e-06,0.0,0 STARLINK-4474,1 53547U 22101W   24213.59999403  .00000677  00000-0  60658-4 0  9999,2 53547  53.2179 175.1858 0001515 103.7317 256.3844 15.08838054108498,6917.886,95.438,540.799,538.703,0.0
53547.0,STARLINK-4474,PAYLOAD,2024-08-01 14:14:45,15.08853061,0.0001005,53.216,170.7187,79.3436,280.767,0.00011444,1.535e-05,0.0,0 STARLINK-4474,1 53547U 22101W   24214.59358241  .00001535  00000-0  11444-3 0  9991,2 53547  53.2160 170.7187 0001005  79.3436 280.7670 15.08853061108648,6917.84,95.437,540.401,539.01,0.0
53547.0,STARLINK-4474,PAYLOAD,2024-08-02 04:33:15,15.08837398,0.00014,53.2168,168.0449,86.4127,273.7026,2.0914e-05,4.5e-07,0.0,0 STARLINK-4474,1 53547U 22101W   24215.18975842  .00000045  00000-0  20914-4 0  9997,2 53547  53.2168 168.0449 0001400  86.4127 273.7026 15.08837398108060,6917.888,95.438,540.722,538.785,0.0
53547.0,STARLINK-4474,PAYLOAD,2024-08-02 14:05:32,15.08850355,0.0001327,53.2166,166.2583,78.85,281.2641,0.00010461,1.378e-05,0.0,0 STARLINK-4474,1 53547U 22101W   24215.58718666  .00001378  00000-0  10461-3 0  9995,2 53547  53.2166 166.2583 0001327  78.8500 281.2641 15.08850355108790,6917.849,95.437,540.632,538.796,0.0
53547.0,STARLINK-4474,PAYLOAD,2024-08-02 20:27:07,15.08827855,0.0001443,53.2181,165.0707,91.8922,268.2235,1.8455e-05,6e-08,0.0,0 STARLINK-4474,1 53547U 22101W   24215.85216502  .00000006  00000-0  18455-4 0  9996,2 53547  53.2181 165.0707 0001443  91.8922 268.2235 15.08827855108168,6917.918,95.438,540.781,538.784,0.0
53547.0,STARLINK-4474,PAYLOAD,2024-08-03 04:24:02,15.08842565,0.0001364,53.2158,163.5842,88.9247,271.1902,-2.9467e-06,-3.35e-06,0.0,0 STARLINK-4474,1 53547U 22101W   24216.18335719 -.00000335  00000-0 -29467-5 0  9998,2 53547  53.2158 163.5842 0001364  88.9247 271.1902 15.08842565108219,6917.873,95.437,540.681,538.794,0.0
53547.0,STARLINK-4474,PAYLOAD,2024-08-03 13:56:19,15.08855788,0.0001405,53.2163,161.8003,81.5279,278.5872,4.9135e-05,4.94e-06,0.0,0 STARLINK-4474,1 53547U 22101W   24216.58078404  .00000494  00000-0  49135-4 0  9994,2 53547  53.2163 161.8003 0001405  81.5279 278.5872 15.08855788108943,6917.832,95.437,540.669,538.725,0.0
53547.0,STARLINK-4474,PAYLOAD,2024-08-04 02:39:25,15.08834428,0.0001616,53.2167,159.4174,103.1393,256.978,7.3004e-05,8.74e-06,0.0,0 STARLINK-4474,1 53547U 22101W   24217.11071680  .00000874  00000-0  73004-4 0  9997,2 53547  53.2167 159.4174 0001616 103.1393 256.9780 15.08834428108352,6917.897,95.438,540.88,538.644,0.0
53547.0,STARLINK-4474,PAYLOAD,2024-08-04 13:47:07,15.08848776,0.0001557,53.2168,157.3368,101.6607,258.456,4.0467e-05,3.56e-06,0.0,0 STARLINK-4474,1 53547U 22101W   24217.57438862  .00000356  00000-0  40467-4 0  9998,2 53547  53.2168 157.3368 0001557 101.6607 258.4560 15.08848776109096,6917.854,95.437,540.796,538.641,0.0
53547.0,STARLINK-4474,PAYLOAD,2024-08-05 02:30:12,15.08841491,0.0001676,53.2162,154.9595,95.6003,264.518,0.00013895,1.924e-05,0.0,0 STARLINK-4474,1 53547U 22101W   24218.10431067  .00001924  00000-0  13895-3 0  9994,2 53547  53.2162 154.9595 0001676  95.6003 264.5180 15.08841491108507,6917.876,95.437,540.9,538.581,0.0
53547.0,STARLINK-4474,PAYLOAD,2024-08-05 23:10:14,15.08827018,0.0001326,53.215,151.091,105.0747,255.0392,1.6041e-06,-2.62e-06,0.0,0 STARLINK-4474,1 53547U 22101W   24218.96544684 -.00000262  00000-0  16041-5 0  9991,2 53547  53.2150 151.0910 0001326 105.0747 255.0392 15.08827018109304,6917.92,95.438,540.702,538.868,0.0
53547.0,STARLINK-4474,PAYLOAD,2024-08-06 02:21:02,15.08811642,0.0001445,53.2167,150.4984,87.5771,272.5386,-0.00013877,-2.494e-05,0.0,0 STARLINK-4474,1 53547U 22101W   24219.09794158 -.00002494  00000-0 -13877-3 0  9991,2 53547  53.2167 150.4984 0001445  87.5771 272.5386 15.08811642108659,6917.967,95.439,540.832,538.832,0.0
53547.0,STARLINK-4474,PAYLOAD,2024-08-06 11:53:20,15.0882444,0.0001277,53.2168,148.7163,80.4648,279.6488,-9.4736e-05,-1.795e-05,0.0,0 STARLINK-4474,1 53547U 22101W   24219.49537703 -.00001795  00000-0 -94736-4 0  9993,2 53547  53.2168 148.7163 0001277  80.4648 279.6488 15.08824440108715,6917.928,95.439,540.676,538.91,0.0
53547.0,STARLINK-4474,PAYLOAD,2024-08-06 19:50:15,15.08829786,0.0001168,53.2136,147.2282,74.6612,285.4509,5.9964e-05,6.66e-06,0.0,0 STARLINK-4474,1 53547U 22101W   24219.82657243  .00000666  00000-0  59964-4 0  9990,2 53547  53.2136 147.2282 0001168  74.6612 285.4509 15.08829786108763,6917.912,95.438,540.585,538.969,0.0
